STARLINK-31842          
1 59672U 24084U   26068.30748548 -.00000113  00000+0  54137-5 0  9998
2 59672  43.0059  40.5821 0001090 258.4725 101.6004 15.27578838104354
FLOCK 4G-30             
1 62679U 25009BY  26068.70871344  .00013147  00000+0  49475-3 0  9999
2 62679  97.3969 150.6012 0003795 342.4152  17.6955 15.27244548121341
